GLOBALSTAR M067         
1 32263U 07048A   25282.31934648 -.00000090  00000+0  57687-4 0  9998
2 32263  51.9732  61.9666 0000939 178.4360 197.3630 12.40679343823651
GLOBALSTAR M070         
1 32264U 07048B   25282.79696571 -.00000053  00000+0  28287-3 0  9993
2 32264  51.9729 139.3537 0001032  73.7626  25.4704 12.62324202828149
GLOBALSTAR M066         
1 32265U 07048C   25283.34446762 -.00000108  00000+0 -11677-3 0  9998
2 32265  51.9600  55.1327 0004204 232.1752 149.9720 12.30378123829478
GLOBALSTAR M068         
1 32266U 07048D   25283.23704383 -.00000099  00000+0  29549-4 0  9999
2 32266  51.9892 311.5459 0001194  43.9429  33.7455 12.62830232832097
GLOBALSTAR M079         
1 37188U 10054A   25283.09423969 -.00000083  00000+0  11576-3 0  9993
2 37188  52.0020 149.9918 0000832  97.6671  60.4341 12.62267669690963
GLOBALSTAR M074         
1 37189U 10054B   25283.03934902 -.00000069  00000+0  19452-3 0  9997
2 37189  51.9997 149.4639 0000740  76.7392  71.2543 12.62272343691562
GLOBALSTAR M076         
1 37190U 10054C   25283.06948744 -.00000076  00000+0  15432-3 0  9993
2 37190  52.0012 149.5544 0000585  92.3437  72.0155 12.62266127691281
GLOBALSTAR M077         
1 37191U 10054D   25261.11398905 -.00000105  00000+0 -68518-5 0  9993
2 37191  52.0064 173.2575 0000611  67.5371  70.5425 12.62323380688888
